1 44737U 19074AA  22365.45124942  .00006573  00000-0  45946-3 0  9997
2 44737  53.0547  33.0924 0001702  72.3940 287.7235 15.06421904173161
1 44737U 19074AA  22365.51759435  .00004840  00000-0  34337-3 0  9992
2 44737  53.0543  32.7948 0001686  73.1558 286.9616 15.06423400173004
1 44737U 19074AA  22365.78298164  .00000826  00000-0  74343-4 0  9990
2 44737  53.0545  31.6031 0001664  71.6897 288.4273 15.06413810173046
1 44737U 19074AA  23001.11471682 -.00004245  00000-0 -26628-3 0  9996
2 44737  53.0545  30.1136 0001293  69.4103 290.7025 15.06397667173265
1 44737U 19074AA  23001.44645531 -.00003328  00000-0 -20469-3 0  9996
2 44737  53.0544  28.6245 0001354  68.3179 291.7954 15.06392884173141
1 44737U 19074AA  23001.77819968 -.00004080  00000-0 -25530-3 0  9999
2 44737  53.0543  27.1357 0001692  73.3666 286.7509 15.06377678173199
1 44737U 19074AA  23001.77819968 -.00004080  00000-0 -25530-3 0  9999
2 44737  53.0543  27.1357 0001692  73.3666 286.7509 15.06377678173368
1 44737U 19074AA  23002.24263369  .00005662  00000-0  39885-3 0  9993
2 44737  53.0541  25.0506 0001574  72.2077 287.9083 15.06384944173434
1 44737U 19074AA  23002.37532904  .00007702  00000-0  53559-3 0  9992
2 44737  53.0546  24.4551 0001715  73.7438 286.3740 15.06387341173286
1 44737U 19074AA  23002.77341198  .00013521  00000-0  92488-3 0  9999
2 44737  53.0542  22.6680 0001639  71.4951 288.6216 15.06397999173345
1 44737U 19074AA  23003.03879766  .00014968  00000-0  10214-2 0  9998
2 44737  53.0541  21.4767 0001664  71.4019 288.7150 15.06408732173559
1 44737U 19074AA  23003.30418389  .00012749  00000-0  87291-3 0  9993
2 44737  53.0545  20.2851 0001721  71.4763 288.6413 15.06412171173423
1 44737U 19074AA  23004.03399835  .00004098  00000-0  29380-3 0  9991
2 44737  53.0546  17.0090 0001685  70.6399 289.4772 15.06404667173707
1 44737U 19074AA  23004.29938490  .00005053  00000-0  35780-3 0  9998
2 44737  53.0549  15.8176 0001690  70.9882 289.1290 15.06407902173579
1 44737U 19074AA  23005.29457525  .00006391  00000-0  44732-3 0  9997
2 44737  53.0547  11.3497 0001635  69.6870 290.4295 15.06421150173723
1 44737U 19074AA  23005.29457525  .00006391  00000-0  44732-3 0  9997
2 44737  53.0547  11.3497 0001635  69.6870 290.4295 15.06421150173891
1 44737U 19074AA  23006.28978209 -.00001892  00000-0 -10816-3 0  9993
2 44737  53.0537   6.8810 0001339  71.6915 288.4220 15.06395880173875
1 44737U 19074AA  23006.28978209 -.00001892  00000-0 -10816-3 0  9993
2 44737  53.0537   6.8810 0001339  71.6915 288.4220 15.06395880174045
1 44737U 19074AA  23007.01961155 -.00000059  00000-0  14898-4 0  9995
2 44737  53.0541   3.6058 0000928  44.0735 316.0328 15.06375220174151
1 44737U 19074AA  23007.28500308 -.00000350  00000-0 -46184-5 0  9992
2 44737  53.0529   2.4148 0001251  74.9548 285.1579 15.06380390174022
1 44737U 19074AA  23007.68308782  .00006522  00000-0  45651-3 0  9999
2 44737  53.0532   0.6271 0001409  83.6522 276.4628 15.06387602174084
1 44737U 19074AA  23007.68308782  .00006522  00000-0  45651-3 0  9999
2 44737  53.0532   0.6271 0001409  83.6522 276.4628 15.06387602174253
1 44737U 19074AA  23008.01482200  .00010781  00000-0  74157-3 0  9990
2 44737  53.0534 359.1368 0001293  88.4217 271.6920 15.06398276174137
1 44737U 19074AA  23008.01482200  .00010781  00000-0  74157-3 0  9990
2 44737  53.0534 359.1368 0001293  88.4217 271.6920 15.06398276174306
1 44737U 19074AA  23009.20906677  .00003210  00000-0  23430-3 0  9998
2 44737  53.0532 353.7754 0001273  86.8274 273.2860 15.06398643174316
1 44737U 19074AA  23009.20906677  .00003210  00000-0  23430-3 0  9998
2 44737  53.0532 353.7754 0001273  86.8274 273.2860 15.06398643174484
1 44737U 19074AA  23010.33696167  .00006029  00000-0  42319-3 0  9992
2 44737  53.0534 348.7125 0001392  87.5129 272.6020 15.06407206174488
1 44737U 19074AA  23010.33696167  .00006029  00000-0  42319-3 0  9992
2 44737  53.0534 348.7125 0001392  87.5129 272.6020 15.06407206174657
1 44737U 19074AA  23010.66869637  .00002071  00000-0  15787-3 0  9994
2 44737  53.0549 347.2239 0001413  84.4779 275.6371 15.06409154174537
1 44737U 19074AA  23011.13312312  .00003086  00000-0  22593-3 0  9990
2 44737  53.0552 345.1380 0001559  98.0424 262.0742 15.06408313174600
1 44737U 19074AA  23011.13312312  .00003086  00000-0  22593-3 0  9990
2 44737  53.0552 345.1380 0001559  98.0424 262.0742 15.06408313174778
1 44737U 19074AA  23011.92928717  .00002870  00000-0  21147-3 0  9993
2 44737  53.0537 341.5638 0001379  92.1003 268.0144 15.06401655174724
1 44737U 19074AA  23012.19467395  .00003012  00000-0  22098-3 0  9998
2 44737  53.0549 340.3736 0001259  83.5455 276.5678 15.06402952174935
1 44737U 19074AA  23012.59275812  .00000558  00000-0  56385-4 0  9992
2 44737  53.0540 338.5871 0001418  85.2915 274.8236 15.06394514174993
1 44737U 19074AA  23012.92449497  .00000181  00000-0  31030-4 0  9993
2 44737  53.0540 337.0993 0001605  89.1594 270.9579 15.06393099174877
1 44737U 19074AA  23013.58796144  .00003852  00000-0  27737-3 0  9996
2 44737  53.0535 334.1230 0001360 102.7838 257.3303 15.06400269174977
1 44737U 19074AA  23013.91969756  .00001106  00000-0  93148-4 0  9994
2 44737  53.0538 332.6311 0001303  96.9406 263.1731 15.06395839175028
1 44737U 19074AA  23014.11873417  .00004751  00000-0  33756-3 0  9992
2 44737  53.0554 331.7418 0001160  95.1121 265.0000 15.06407168175221
1 44737U 19074AA  23014.91489708  .00004150  00000-0  29729-3 0  9994
2 44737  53.0553 328.1617 0002390  86.8709 273.2553 15.06406966175348
1 44737U 19074AA  23015.57835962  .00003644  00000-0  26331-3 0  9997
2 44737  53.0533 325.1835 0001085  94.2645 265.8468 15.06407948175272
1 44737U 19074AA  23016.10912921  .00006813  00000-0  47561-3 0  9997
2 44737  53.0527 322.7999 0001394 100.4065 259.7081 15.06418428175524
1 44737U 19074AA  23016.57355807  .00003592  00000-0  25982-3 0  9996
2 44737  53.0541 320.7172 0001330  93.0197 267.0944 15.06408546175423
1 44737U 19074AA  23016.83895582 -.00007520  00000-0 -48677-3 0  9997
2 44737  53.0534 319.5252 0001321 109.6434 250.4698 15.06376952175469
1 44737U 19074AA  23016.83895582 -.00007520  00000-0 -48677-3 0  9997
2 44737  53.0534 319.5252 0001321 109.6434 250.4698 15.06376952175638
1 44737U 19074AA  23017.23703766 -.00002308  00000-0 -13614-3 0  9996
2 44737  53.0528 317.7371 0001369 111.2517 248.8618 15.06386492175527
1 44737U 19074AA  23017.23703766 -.00002308  00000-0 -13614-3 0  9996
2 44737  53.0528 317.7371 0001369 111.2517 248.8618 15.06386492175695
1 44737U 19074AA  23018.23224898  .00018887  00000-0  12832-2 0  9998
2 44737  53.0539 313.2682 0001580 120.7926 239.3219 15.06407904175679
1 44737U 19074AA  23018.23224898  .00018887  00000-0  12832-2 0  9998
2 44737  53.0539 313.2682 0001580 120.7926 239.3219 15.06407904175848
1 44737U 19074AA  23019.16109346  .00020488  00000-0  13890-2 0  9996
2 44737  53.0546 309.0989 0001341  98.7839 261.3302 15.06436238175818
1 44737U 19074AA  23019.16109346  .00020488  00000-0  13890-2 0  9996
2 44737  53.0546 309.0989 0001341  98.7839 261.3302 15.06436238175986
1 44737U 19074AA  23020.08995746  .00004393  00000-0  31366-3 0  9992
2 44737  53.0536 304.9287 0001928  93.6526 266.4683 15.06398181176127
1 44737U 19074AA  23020.48804298  .00004305  00000-0  30780-3 0  9999
2 44737  53.0538 303.1420 0001339  82.6502 277.4639 15.06388554176011
1 44737U 19074AA  23020.48804298  .00004305  00000-0  30780-3 0  9999
2 44737  53.0538 303.1420 0001339  82.6502 277.4639 15.06388554176189
1 44737U 19074AA  23021.15150837  .00016684  00000-0  11362-2 0  9994
2 44737  53.0539 300.1631 0001341  88.3319 271.7823 15.06403450176289
1 44737U 19074AA  23021.48324642  .00015094  00000-0  10300-2 0  9992
2 44737  53.0542 298.6739 0001380  86.3171 273.7975 15.06401447176330
1 44737U 19074AA  23022.47845315 -.00002490  00000-0 -14834-3 0  9992
2 44737  53.0545 294.2095 0002807  71.4552 288.6742 15.06390310176482
1 44737U 19074AA  23022.74384950 -.00017298  00000-0 -11466-2 0  9994
2 44737  53.0523 293.0172 0001415  78.7231 281.3916 15.06355566176521
1 44737U 19074AA  23023.14192985  .00064196  00000-0  42881-2 0  9996
2 44737  53.0530 291.2298 0001268  87.8103 272.3031 15.06413102176588
1 44737U 19074AA  23023.47365955  .00037193  00000-0  25007-2 0  9999
2 44737  53.0523 289.7377 0001464 102.3736 257.7417 15.06428911176638
1 44737U 19074AA  23024.13712349  .00013756  00000-0  93997-3 0  9999
2 44737  53.0535 286.7607 0001391 105.9098 254.2045 15.06423634176730
1 44737U 19074AA  23024.99962765  .00009801  00000-0  67564-3 0  9999
2 44737  53.0528 282.8867 0001585 117.1020 243.0131 15.06417744176863
1 44737U 19074AA  23025.39770256  .00008311  00000-0  57583-3 0  9991
2 44737  53.0530 281.0990 0001537 114.5059 245.6090 15.06422743176759
1 44737U 19074AA  23025.79579180  .00002481  00000-0  18535-3 0  9994
2 44737  53.0530 279.3111 0001464  95.8827 264.2329 15.06403338176815
1 44737U 19074AA  23025.79579180  .00002481  00000-0  18535-3 0  9994
2 44737  53.0530 279.3111 0001464  95.8827 264.2329 15.06403338176983
1 44737U 19074AA  23026.12752588  .00000439  00000-0  48375-4 0  9994
2 44737  53.0525 277.8255 0001274  84.6619 275.4515 15.06402111176869
1 44737U 19074AA  23026.85734120  .00000158  00000-0  29512-4 0  9996
2 44737  53.0524 274.5492 0001248  83.2698 276.8433 15.06400396177147
1 44737U 19074AA  23027.05637274  .00002133  00000-0  16199-3 0  9992
2 44737  53.0527 273.6550 0001180  97.0094 263.1030 15.06412960177000
1 44737U 19074AA  23027.05637274  .00002133  00000-0  16199-3 0  9992
2 44737  53.0527 273.6550 0001180  97.0094 263.1030 15.06412960177178
1 44737U 19074AA  23027.85254569  .00001358  00000-0  11003-3 0  9999
2 44737  53.0527 270.0809 0001194  89.0723 271.0403 15.06397009177124
1 44737U 19074AA  23028.05158570  .00001622  00000-0  12776-3 0  9999
2 44737  53.0526 269.1877 0001129  87.4435 272.6683 15.06399623177151
1 44737U 19074AA  23028.05158570  .00001622  00000-0  12776-3 0  9999
2 44737  53.0526 269.1877 0001129  87.4435 272.6683 15.06399623177320
1 44737U 19074AA  23028.64871177  .00000913  00000-0  80192-4 0  9999
2 44737  53.0529 266.5081 0001117  76.8012 283.3101 15.06394051177415
1 44737U 19074AA  23028.91409608 -.00000953  00000-0 -45111-4 0  9993
2 44737  53.0523 265.3164 0001130  70.1320 289.9790 15.06400986177288
1 44737U 19074AA  23029.04678894 -.00000318  00000-0 -24713-5 0  9994
2 44737  53.0522 264.7201 0001125  71.1324 288.9787 15.06402494177473
1 44737U 19074AA  23029.90929871  .00002507  00000-0  18711-3 0  9992
2 44737  53.0518 260.8476 0001131  84.2423 275.8695 15.06401758177432
1 44737U 19074AA  23030.57277011  .00000626  00000-0  60885-4 0  9999
2 44737  53.0518 257.8691 0001209  87.1578 272.9549 15.06396350177534
1 44737U 19074AA  23030.63911910  .00000710  00000-0  66526-4 0  9991
2 44737  53.0525 257.5712 0001195  88.0497 272.0629 15.06394808177713
1 44737U 19074AA  23030.90450522  .00000742  00000-0  68701-4 0  9990
2 44737  53.0526 256.3797 0001199  88.4128 271.6998 15.06396488177588
1 44737U 19074AA  23031.56797212  .00000577  00000-0  57654-4 0  9994
2 44737  53.0524 253.4014 0001225  89.0262 271.0867 15.06399462177687
1 44737U 19074AA  23031.76700904  .00000963  00000-0  83534-4 0  9993
2 44737  53.0526 252.5079 0001233  89.1954 270.9176 15.06403233177883
1 44737U 19074AA  23031.89970236  .00000932  00000-0  81427-4 0  9999
2 44737  53.0527 251.9121 0001212  88.6925 271.4203 15.06403466177733
1 44737U 19074AA  23031.96604808  .00001086  00000-0  91777-4 0  9996
2 44737  53.0527 251.6142 0001253  90.0510 270.0622 15.06404498177742
